start=new Date('2022-04-30T00:00:00.000Z').valueOf();
sats=[{"BSTAR":"0.00015898000000","EPOCH":"2022-04-29T21:50:32.563104","ECCENTRICITY":"0.00012660","REF_FRAME":"TEME","OBJECT_ID":"2021-027AY","COUNTRY_CODE":"US","MEAN_MOTION_DDOT":"0.0000000000000","PERIOD":"95.592","SITE":"AFETR","TLE_LINE2":"2 48138  53.0559  20.3758 0001266  84.5272 275.5862 15.06405087 59938","FILE":"3421985","NORAD_CAT_ID":"48138","DECAY_DATE":null,"MEAN_MOTION":"15.06405087","INCLINATION":"53.0559","TLE_LINE1":"1 48138U 21027AY  22119.91009911  .00002088  00000-0  15898-3 0  9993","MEAN_MOTION_DOT":"0.00002088","APOAPSIS":"548.075","RCS_SIZE":"LARGE","CENTER_NAME":"EARTH","EPHEMERIS_TYPE":"0","TIME_SYSTEM":"UTC","REV_AT_EPOCH":"5993","ELEMENT_SET_NO":"999","MEAN_ANOMALY":"275.5862","RA_OF_ASC_NODE":"20.3758","OBJECT_TYPE":"PAYLOAD","CLASSIFICATION_TYPE":"U","LAUNCH_DATE":"2021-04-07","OBJECT_NAME":"STARLINK-2481","MEAN_ELEMENT_THEORY":"SGP4","GP_ID":"202309989","SEMIMAJOR_AXIS":"6925.333","PERIAPSIS":"546.321","ARG_OF_PERICENTER":"84.5272"},{"INCLINATION":"53.0565","MEAN_MOTION":"15.06396755","DECAY_DATE":null,"NORAD_CAT_ID":"48139","RCS_SIZE":"LARGE","CENTER_NAME":"EARTH","APOAPSIS":"548.332","TLE_LINE1":"1 48139U 21027AZ  22119.90088625 -.00001609  00000-0 -89143-4 0  9997","MEAN_MOTION_DOT":"-0.00001609","OBJECT_ID":"2021-027AZ","COUNTRY_CODE":"US","ECCENTRICITY":"0.00016010","REF_FRAME":"TEME","BSTAR":"-0.00008914300000","EPOCH":"2022-04-29T21:37:16.572000","FILE":"3421985","PERIOD":"95.592","TLE_LINE2":"2 48139  53.0565   0.4104 0001601  65.1381 294.9774 15.06396755 60210","SITE":"AFETR","MEAN_MOTION_DDOT":"0.0000000000000","OBJECT_NAME":"STARLINK-2482","LAUNCH_DATE":"2021-04-07","MEAN_ELEMENT_THEORY":"SGP4","CLASSIFICATION_TYPE":"U","ARG_OF_PERICENTER":"65.1381","PERIAPSIS":"546.115","GP_ID":"202310740","SEMIMAJOR_AXIS":"6925.359","MEAN_ANOMALY":"294.9774","ELEMENT_SET_NO":"999","REV_AT_EPOCH":"6021","EPHEMERIS_TYPE":"0","TIME_SYSTEM":"UTC","RA_OF_ASC_NODE":"0.4104","OBJECT_TYPE":"PAYLOAD"},{"EPHEMERIS_TYPE":"0","TIME_SYSTEM":"UTC","REV_AT_EPOCH":"5992","ELEMENT_SET_NO":"999","MEAN_ANOMALY":"300.6681","OBJECT_TYPE":"PAYLOAD","RA_OF_ASC_NODE":"20.5639","CLASSIFICATION_TYPE":"U","MEAN_ELEMENT_THEORY":"SGP4","LAUNCH_DATE":"2021-04-07","OBJECT_NAME":"STARLINK-2483","GP_ID":"202310497","SEMIMAJOR_AXIS":"6925.373","PERIAPSIS":"546.186","ARG_OF_PERICENTER":"59.4458","BSTAR":"-0.00000964760000","EPOCH":"2022-04-29T20:50:48.819840","REF_FRAME":"TEME","ECCENTRICITY":"0.00015190","COUNTRY_CODE":"US","OBJECT_ID":"2021-027BA","MEAN_MOTION_DDOT":"0.0000000000000","SITE":"AFETR","TLE_LINE2":"2 48140  53.0559  20.5639 0001519  59.4458 300.6681 15.06391996 59920","PERIOD":"95.593","FILE":"3421985","NORAD_CAT_ID":"48140","DECAY_DATE":null,"MEAN_MOTION":"15.06391996","INCLINATION":"53.0559","MEAN_MOTION_DOT":"-0.00000425","TLE_LINE1":"1 48140U 21027BA  22119.86862060 -.00000425  00000-0 -96476-5 0  9990","APOAPSIS":"548.290","RCS_SIZE":"LARGE","CENTER_NAME":"EARTH"},{"EPHEMERIS_TYPE":"0","TIME_SYSTEM":"UTC","REV_AT_EPOCH":"5994","ELEMENT_SET_NO":"999","MEAN_ANOMALY":"305.5952","RA_OF_ASC_NODE":"20.4471","OBJECT_TYPE":"PAYLOAD","CLASSIFICATION_TYPE":"U","MEAN_ELEMENT_THEORY":"SGP4","LAUNCH_DATE":"2021-04-07","OBJECT_NAME":"STARLINK-2484","GP_ID":"202309246","SEMIMAJOR_AXIS":"6925.382","PERIAPSIS":"546.100","ARG_OF_PERICENTER":"54.5191","EPOCH":"2022-04-29T21:24:00.478944","BSTAR":"-0.00024449000000","REF_FRAME":"TEME","ECCENTRICITY":"0.00016560","COUNTRY_CODE":"US","OBJECT_ID":"2021-027BB","MEAN_MOTION_DDOT":"0.0000000000000","SITE":"AFETR","TLE_LINE2":"2 48141  53.0544  20.4471 0001656  54.5191 305.5952 15.06389214 59947","PERIOD":"95.593","FILE":"3421985","DECAY_DATE":null,"NORAD_CAT_ID":"48141","MEAN_MOTION":"15.06389214","INCLINATION":"53.0544","MEAN_MOTION_DOT":"-0.00003920","TLE_LINE1":"1 48141U 21027BB  22119.89167221 -.00003920  00000-0 -24449-3 0  9993","APOAPSIS":"548.393","CENTER_NAME":"EARTH","RCS_SIZE":"LARGE"},{"CLASSIFICATION_TYPE":"U","MEAN_ELEMENT_THEORY":"SGP4","LAUNCH_DATE":"2021-04-07","OBJECT_NAME":"STARLINK-2485","SEMIMAJOR_AXIS":"6925.363","GP_ID":"202309496","PERIAPSIS":"546.169","ARG_OF_PERICENTER":"76.8847","EPHEMERIS_TYPE":"0","TIME_SYSTEM":"UTC","REV_AT_EPOCH":"6021","ELEMENT_SET_NO":"999","MEAN_ANOMALY":"283.2313","RA_OF_ASC_NODE":"0.4335","OBJECT_TYPE":"PAYLOAD","DECAY_DATE":null,"NORAD_CAT_ID":"48142","MEAN_MOTION":"15.06395140","INCLINATION":"53.0561","MEAN_MOTION_DOT":"-0.00002399","TLE_LINE1":"1 48142U 21027BC  22119.89720032 -.00002399  00000-0 -14225-3 0  9999","APOAPSIS":"548.288","RCS_SIZE":"LARGE","CENTER_NAME":"EARTH","EPOCH":"2022-04-29T21:31:58.107648","BSTAR":"-0.00014225000000","REF_FRAME":"TEME","ECCENTRICITY":"0.00015300","COUNTRY_CODE":"US","OBJECT_ID":"2021-027BC","MEAN_MOTION_DDOT":"0.0000000000000","SITE":"AFETR","TLE_LINE2":"2 48142  53.0561   0.4335 0001530  76.8847 283.2313 15.06395140 60210","PERIOD":"95.592","FILE":"3421985"},{"DECAY_DATE":null,"NORAD_CAT_ID":"48143","INCLINATION":"53.0555","MEAN_MOTION":"15.06395931","TLE_LINE1":"1 48143U 21027BD  22119.81379462 -.00001771  00000-0 -10005-3 0  9994","MEAN_MOTION_DOT":"-0.00001771","RCS_SIZE":"LARGE","CENTER_NAME":"EARTH","APOAPSIS":"548.305","ECCENTRICITY":"0.00015580","REF_FRAME":"TEME","EPOCH":"2022-04-29T19:31:51.855168","BSTAR":"-0.00010005000000","OBJECT_ID":"2021-027BD","COUNTRY_CODE":"US","PERIOD":"95.592","SITE":"AFETR","TLE_LINE2":"2 48143  53.0555 315.8074 0001558  73.7580 286.3581 15.06395931 60429","MEAN_MOTION_DDOT":"0.0000000000000","FILE":"3421761","OBJECT_NAME":"STARLINK-2486","LAUNCH_DATE":"2021-04-07","MEAN_ELEMENT_THEORY":"SGP4","CLASSIFICATION_TYPE":"U","SEMIMAJOR_AXIS":"6925.361","GP_ID":"202283920","ARG_OF_PERICENTER":"73.7580","PERIAPSIS":"546.147","REV_AT_EPOCH":"6042","EPHEMERIS_TYPE":"0","TIME_SYSTEM":"UTC","MEAN_ANOMALY":"286.3581","ELEMENT_SET_NO":"999","RA_OF_ASC_NODE":"315.8074","OBJECT_TYPE":"PAYLOAD"},{"NORAD_CAT_ID":"48144","DECAY_DATE":null,"MEAN_MOTION":"15.06390393","INCLINATION":"53.0560","MEAN_MOTION_DOT":"-0.00002882","TLE_LINE1":"1 48144U 21027BE  22119.90457797 -.00002882  00000-0 -17468-3 0  9997","APOAPSIS":"548.256","RCS_SIZE":"LARGE","CENTER_NAME":"EARTH","BSTAR":"-0.00017468000000","EPOCH":"2022-04-29T21:42:35.536608","REF_FRAME":"TEME","ECCENTRICITY":"0.00014630","COUNTRY_CODE":"US","OBJECT_ID":"2021-027BE","MEAN_MOTION_DDOT":"0.0000000000000","TLE_LINE2":"2 48144  53.0560   0.3937 0001463  99.2605 260.8550 15.06390393 60202","SITE":"AFETR","PERIOD":"95.593","FILE":"3421985","CLASSIFICATION_TYPE":"U","MEAN_ELEMENT_THEORY":"SGP4","LAUNCH_DATE":"2021-04-07","OBJECT_NAME":"STARLINK-2487","GP_ID":"202310991","SEMIMAJOR_AXIS":"6925.378","PERIAPSIS":"546.230","ARG_OF_PERICENTER":"99.2605","EPHEMERIS_TYPE":"0","TIME_SYSTEM":"UTC","REV_AT_EPOCH":"6020","ELEMENT_SET_NO":"999","MEAN_ANOMALY":"260.8550","OBJECT_TYPE":"PAYLOAD","RA_OF_ASC_NODE":"0.3937"},{"TLE_LINE2":"2 48145  53.0566   0.3771 0001584  59.1818 300.9327 15.06397407 60212","SITE":"AFETR","PERIOD":"95.592","MEAN_MOTION_DDOT":"0.0000000000000","FILE":"3421985","REF_FRAME":"TEME","ECCENTRICITY":"0.00015840","EPOCH":"2022-04-29T21:47:53.067840","BSTAR":"-0.00021169000000","COUNTRY_CODE":"US","OBJECT_ID":"2021-027BF","MEAN_MOTION_DOT":"-0.00003433","TLE_LINE1":"1 48145U 21027BF  22119.90825310 -.00003433  00000-0 -21169-3 0  9994","RCS_SIZE":"MEDIUM","CENTER_NAME":"EARTH","APOAPSIS":"548.318","DECAY_DATE":null,"NORAD_CAT_ID":"48145","INCLINATION":"53.0566","MEAN_MOTION":"15.06397407","RA_OF_ASC_NODE":"0.3771","OBJECT_TYPE":"PAYLOAD","REV_AT_EPOCH":"6021","TIME_SYSTEM":"UTC","EPHEMERIS_TYPE":"0","MEAN_ANOMALY":"300.9327","ELEMENT_SET_NO":"999","GP_ID":"202309740","SEMIMAJOR_AXIS":"6925.357","ARG_OF_PERICENTER":"59.1818","PERIAPSIS":"546.125","MEAN_ELEMENT_THEORY":"SGP4","LAUNCH_DATE":"2021-04-07","OBJECT_NAME":"STARLINK-2488","CLASSIFICATION_TYPE":"U"},{"DECAY_DATE":null,"NORAD_CAT_ID":"48146","MEAN_MOTION":"15.06420615","INCLINATION":"53.0543","MEAN_MOTION_DOT":"0.00002095","TLE_LINE1":"1 48146U 21027BG  22119.90639070  .00002095  00000-0  15944-3 0  9996","APOAPSIS":"548.134","RCS_SIZE":"LARGE","CENTER_NAME":"EARTH","EPOCH":"2022-04-29T21:45:12.156480","BSTAR":"0.00015944000000","REF_FRAME":"TEME","ECCENTRICITY":"0.00014210","COUNTRY_CODE":"US","OBJECT_ID":"2021-027BG","MEAN_MOTION_DDOT":"0.0000000000000","SITE":"AFETR","TLE_LINE2":"2 48146  53.0543  20.3905 0001421 120.8025 239.3104 15.06420615 59938","PERIOD":"95.591","FILE":"3421985","CLASSIFICATION_TYPE":"U","MEAN_ELEMENT_THEORY":"SGP4","OBJECT_NAME":"STARLINK-2489","LAUNCH_DATE":"2021-04-07","SEMIMAJOR_AXIS":"6925.285","GP_ID":"202309990","PERIAPSIS":"546.166","ARG_OF_PERICENTER":"120.8025","TIME_SYSTEM":"UTC","EPHEMERIS_TYPE":"0","REV_AT_EPOCH":"5993","ELEMENT_SET_NO":"999","MEAN_ANOMALY":"239.3104","RA_OF_ASC_NODE":"20.3905","OBJECT_TYPE":"PAYLOAD"},{"PERIAPSIS":"545.970","ARG_OF_PERICENTER":"62.7198","SEMIMAJOR_AXIS":"6925.352","GP_ID":"202310741","CLASSIFICATION_TYPE":"U","MEAN_ELEMENT_THEORY":"SGP4","LAUNCH_DATE":"2021-04-07","OBJECT_NAME":"STARLINK-2490","RA_OF_ASC_NODE":"25.4007","OBJECT_TYPE":"PAYLOAD","ELEMENT_SET_NO":"999","MEAN_ANOMALY":"297.3974","TIME_SYSTEM":"UTC","EPHEMERIS_TYPE":"0","REV_AT_EPOCH":"5986","APOAPSIS":"548.465","CENTER_NAME":"EARTH","RCS_SIZE":"LARGE","MEAN_MOTION_DOT":"-0.00003983","TLE_LINE1":"1 48147U 21027BH  22119.90410822 -.00003983  00000-0 -24862-3 0  9997","MEAN_MOTION":"15.06398724","INCLINATION":"53.0558","DECAY_DATE":null,"NORAD_CAT_ID":"48147","FILE":"3421985","MEAN_MOTION_DDOT":"0.0000000000000","TLE_LINE2":"2 48147  53.0558  25.4007 0001802  62.7198 297.3974 15.06398724 59868","SITE":"AFETR","PERIOD":"95.592","COUNTRY_CODE":"US","OBJECT_ID":"2021-027BH","EPOCH":"2022-04-29T21:41:54.950208","BSTAR":"-0.00024862000000","REF_FRAME":"TEME","ECCENTRICITY":"0.00018020"}];
